CCSDS_OMM_VERS = 2.0
CREATION_DATE  = 
ORIGINATOR     = 

OBJECT_NAME    = SL-3 R/B
OBJECT_ID      = 1982-079B
CENTER_NAME    = EARTH
REF_FRAME      = TEME
TIME_SYSTEM    = UTC
MEAN_ELEMENT_THEORY = SGP/SGP4

EPOCH          = 2026-03-24T11:55:11.392896
MEAN_MOTION    = 15.24999278
ECCENTRICITY   = .0025492
INCLINATION    = 81.1482
RA_OF_ASC_NODE = 175.5949
ARG_OF_PERICENTER = 115.9830
MEAN_ANOMALY   = 244.4034

EPHEMERIS_TYPE = 0
CLASSIFICATION_TYPE = U
NORAD_CAT_ID   = 13403
ELEMENT_SET_NO = 999
REV_AT_EPOCH   = 37995
BSTAR          = .21158E-3
MEAN_MOTION_DOT = .5354E-4
MEAN_MOTION_DDOT = 0

CCSDS_OMM_VERS = 2.0
CREATION_DATE  = 
ORIGINATOR     = 

OBJECT_NAME    = SL-14 R/B
OBJECT_ID      = 1982-092B
CENTER_NAME    = EARTH
REF_FRAME      = TEME
TIME_SYSTEM    = UTC
MEAN_ELEMENT_THEORY = SGP/SGP4

EPOCH          = 2026-03-24T12:42:55.497600
MEAN_MOTION    = 14.86679265
ECCENTRICITY   = .0018851
INCLINATION    = 82.5666
RA_OF_ASC_NODE = 127.5175
ARG_OF_PERICENTER = 250.4322
MEAN_ANOMALY   = 233.0055

EPHEMERIS_TYPE = 0
CLASSIFICATION_TYPE = U
NORAD_CAT_ID   = 13553
ELEMENT_SET_NO = 999
REV_AT_EPOCH   = 33113
BSTAR          = .4312E-4
MEAN_MOTION_DOT = .408E-5
MEAN_MOTION_DDOT = 0

CCSDS_OMM_VERS = 2.0
CREATION_DATE  = 
ORIGINATOR     = 

OBJECT_NAME    = SL-3 R/B
OBJECT_ID      = 1983-010B
CENTER_NAME    = EARTH
REF_FRAME      = TEME
TIME_SYSTEM    = UTC
MEAN_ELEMENT_THEORY = SGP/SGP4

EPOCH          = 2026-03-24T10:44:14.302464
MEAN_MOTION    = 15.46854970
ECCENTRICITY   = .0016471
INCLINATION    = 81.1051
RA_OF_ASC_NODE = 344.1499
ARG_OF_PERICENTER = 1.5574
MEAN_ANOMALY   = 358.5719

EPHEMERIS_TYPE = 0
CLASSIFICATION_TYPE = U
NORAD_CAT_ID   = 13819
ELEMENT_SET_NO = 999
REV_AT_EPOCH   = 36022
BSTAR          = .28661E-3
MEAN_MOTION_DOT = .14508E-3
MEAN_MOTION_DDOT = 0

CCSDS_OMM_VERS = 2.0
CREATION_DATE  = 
ORIGINATOR     = 

OBJECT_NAME    = SL-3 R/B
OBJECT_ID      = 1983-075B
CENTER_NAME    = EARTH
REF_FRAME      = TEME
TIME_SYSTEM    = UTC
MEAN_ELEMENT_THEORY = SGP/SGP4

EPOCH          = 2026-03-24T10:48:36.743328
MEAN_MOTION    = 15.38757838
ECCENTRICITY   = .0021733
INCLINATION    = 97.6147
RA_OF_ASC_NODE = 88.5908
ARG_OF_PERICENTER = 171.6141
MEAN_ANOMALY   = 188.5472

EPHEMERIS_TYPE = 0
CLASSIFICATION_TYPE = U
NORAD_CAT_ID   = 14208
ELEMENT_SET_NO = 999
REV_AT_EPOCH   = 33242
BSTAR          = .26208E-3
MEAN_MOTION_DOT = .10034E-3
MEAN_MOTION_DDOT = 0

CCSDS_OMM_VERS = 2.0
CREATION_DATE  = 
ORIGINATOR     = 

OBJECT_NAME    = COSMOS 1536
OBJECT_ID      = 1984-013A
CENTER_NAME    = EARTH
REF_FRAME      = TEME
TIME_SYSTEM    = UTC
MEAN_ELEMENT_THEORY = SGP/SGP4

EPOCH          = 2026-03-24T11:51:14.019264
MEAN_MOTION    = 15.24020139
ECCENTRICITY   = .0012942
INCLINATION    = 82.5422
RA_OF_ASC_NODE = 93.1283
ARG_OF_PERICENTER = 224.5765
MEAN_ANOMALY   = 135.4432

EPHEMERIS_TYPE = 0
CLASSIFICATION_TYPE = U
NORAD_CAT_ID   = 14699
ELEMENT_SET_NO = 999
REV_AT_EPOCH   = 27487
BSTAR          = .27616E-3
MEAN_MOTION_DOT = .6738E-4
MEAN_MOTION_DDOT = 0

CCSDS_OMM_VERS = 2.0
CREATION_DATE  = 
ORIGINATOR     = 

OBJECT_NAME    = SL-14 R/B
OBJECT_ID      = 1984-027B
CENTER_NAME    = EARTH
REF_FRAME      = TEME
TIME_SYSTEM    = UTC
MEAN_ELEMENT_THEORY = SGP/SGP4

EPOCH          = 2026-03-24T08:56:34.905408
MEAN_MOTION    = 14.85991036
ECCENTRICITY   = .0016525
INCLINATION    = 82.5406
RA_OF_ASC_NODE = 231.2398
ARG_OF_PERICENTER = 286.2092
MEAN_ANOMALY   = 73.7306

EPHEMERIS_TYPE = 0
CLASSIFICATION_TYPE = U
NORAD_CAT_ID   = 14820
ELEMENT_SET_NO = 999
REV_AT_EPOCH   = 24981
BSTAR          = .56456E-4
MEAN_MOTION_DOT = .518E-5
MEAN_MOTION_DDOT = 0

CCSDS_OMM_VERS = 2.0
CREATION_DATE  = 
ORIGINATOR     = 

OBJECT_NAME    = SL-8 R/B
OBJECT_ID      = 1985-006B
CENTER_NAME    = EARTH
REF_FRAME      = TEME
TIME_SYSTEM    = UTC
MEAN_ELEMENT_THEORY = SGP/SGP4

EPOCH          = 2026-03-24T09:49:20.993664
MEAN_MOTION    = 14.37793719
ECCENTRICITY   = .001785
INCLINATION    = 74.0442
RA_OF_ASC_NODE = 234.0605
ARG_OF_PERICENTER = 147.7791
MEAN_ANOMALY   = 275.8883

EPHEMERIS_TYPE = 0
CLASSIFICATION_TYPE = U
NORAD_CAT_ID   = 15483
ELEMENT_SET_NO = 999
REV_AT_EPOCH   = 15614
BSTAR          = .12058E-3
MEAN_MOTION_DOT = .338E-5
MEAN_MOTION_DDOT = 0

CCSDS_OMM_VERS = 2.0
CREATION_DATE  = 
ORIGINATOR     = 

OBJECT_NAME    = SL-12 R/B(2)
OBJECT_ID      = 1985-042D
CENTER_NAME    = EARTH
REF_FRAME      = TEME
TIME_SYSTEM    = UTC
MEAN_ELEMENT_THEORY = SGP/SGP4

EPOCH          = 2026-03-24T09:45:41.976576
MEAN_MOTION    = 14.21986348
ECCENTRICITY   = .0032855
INCLINATION    = 71.1077
RA_OF_ASC_NODE = 56.6329
ARG_OF_PERICENTER = 103.7347
MEAN_ANOMALY   = 10.1998

EPHEMERIS_TYPE = 0
CLASSIFICATION_TYPE = U
NORAD_CAT_ID   = 15772
ELEMENT_SET_NO = 999
REV_AT_EPOCH   = 11648
BSTAR          = .93335E-4
MEAN_MOTION_DOT = .16E-5
MEAN_MOTION_DDOT = 0

CCSDS_OMM_VERS = 2.0
CREATION_DATE  = 
ORIGINATOR     = 

OBJECT_NAME    = SL-14 R/B
OBJECT_ID      = 1985-069B
CENTER_NAME    = EARTH
REF_FRAME      = TEME
TIME_SYSTEM    = UTC
MEAN_ELEMENT_THEORY = SGP/SGP4

EPOCH          = 2026-03-24T05:14:22.306272
MEAN_MOTION    = 14.86448522
ECCENTRICITY   = .001974
INCLINATION    = 82.5303
RA_OF_ASC_NODE = 11.2748
ARG_OF_PERICENTER = 140.4885
MEAN_ANOMALY   = 219.7775

EPHEMERIS_TYPE = 0
CLASSIFICATION_TYPE = U
NORAD_CAT_ID   = 15945
ELEMENT_SET_NO = 999
REV_AT_EPOCH   = 17499
BSTAR          = .57528E-4
MEAN_MOTION_DOT = .534E-5
MEAN_MOTION_DDOT = 0

CCSDS_OMM_VERS = 2.0
CREATION_DATE  = 
ORIGINATOR     = 

OBJECT_NAME    = SL-16 R/B
OBJECT_ID      = 1985-097B
CENTER_NAME    = EARTH
REF_FRAME      = TEME
TIME_SYSTEM    = UTC
MEAN_ELEMENT_THEORY = SGP/SGP4

EPOCH          = 2026-03-24T09:34:13.121472
MEAN_MOTION    = 14.16602758
ECCENTRICITY   = .0009538
INCLINATION    = 71.0011
RA_OF_ASC_NODE = 109.5866
ARG_OF_PERICENTER = 242.4171
MEAN_ANOMALY   = 215.2382

EPHEMERIS_TYPE = 0
CLASSIFICATION_TYPE = U
NORAD_CAT_ID   = 16182
ELEMENT_SET_NO = 999
REV_AT_EPOCH   = 8931
BSTAR          = .10334E-3
MEAN_MOTION_DOT = .158E-5
MEAN_MOTION_DDOT = 0

CCSDS_OMM_VERS = 2.0
CREATION_DATE  = 
ORIGINATOR     = 

OBJECT_NAME    = SL-14 R/B
OBJECT_ID      = 1986-006B
CENTER_NAME    = EARTH
REF_FRAME      = TEME
TIME_SYSTEM    = UTC
MEAN_ELEMENT_THEORY = SGP/SGP4

EPOCH          = 2026-03-24T11:03:36.409248
MEAN_MOTION    = 14.86836406
ECCENTRICITY   = .0075488
INCLINATION    = 82.5243
RA_OF_ASC_NODE = 245.8312
ARG_OF_PERICENTER = 222.9341
MEAN_ANOMALY   = 136.5970

EPHEMERIS_TYPE = 0
CLASSIFICATION_TYPE = U
NORAD_CAT_ID   = 16496
ELEMENT_SET_NO = 999
REV_AT_EPOCH   = 15140
BSTAR          = .86416E-4
MEAN_MOTION_DOT = .837E-5
MEAN_MOTION_DDOT = 0

CCSDS_OMM_VERS = 2.0
CREATION_DATE  = 
ORIGINATOR     = 

OBJECT_NAME    = COSMOS 1743
OBJECT_ID      = 1986-034A
CENTER_NAME    = EARTH
REF_FRAME      = TEME
TIME_SYSTEM    = UTC
MEAN_ELEMENT_THEORY = SGP/SGP4

EPOCH          = 2026-03-24T09:41:25.702944
MEAN_MOTION    = 15.59720854
ECCENTRICITY   = .000333
INCLINATION    = 82.5305
RA_OF_ASC_NODE = 58.3733
ARG_OF_PERICENTER = 186.0921
MEAN_ANOMALY   = 174.0296

EPHEMERIS_TYPE = 0
CLASSIFICATION_TYPE = U
NORAD_CAT_ID   = 16719
ELEMENT_SET_NO = 999
REV_AT_EPOCH   = 18254
BSTAR          = .51005E-3
MEAN_MOTION_DOT = .40926E-3
MEAN_MOTION_DDOT = 0

